{"type": "FeatureCollection", "features": [ {"type": "Feature", "properties": {"norad_id": 35480, "name": "IRIDIUM 33 DEB", "group": "iridium-33-debris", "lat": -52.88599672579042, "lon": 19.163477353746618, "alt_km": 743.1801635598931, "timestamp": "2025-12-14T20:40:32.157908+00:00", "meta": {"OBJECT_NAME": "IRIDIUM 33 DEB", "OBJECT_ID": "1997-051QA", "EPOCH": "2025-12-09T19:59:43.135296", "MEAN_MOTION": 14.49744632, "ECCENTRICITY": 0.00159269, "INCLINATION": 86.357, "RA_OF_ASC_NODE": 26.1722, "ARG_OF_PERICENTER": 113.2937, "MEAN_ANOMALY": 246.9945, "EPHEMERIS_TYPE": 0, "CLASSIFICATION_TYPE": "U", "NORAD_CAT_ID": 35480, "ELEMENT_SET_NO": 999, "REV_AT_EPOCH": 86989, "BSTAR": 0.0009193458, "MEAN_MOTION_DOT": 3.565e-05, "MEAN_MOTION_DDOT": 0}, "tle": {"line1": "1 35480U 97051QA  25343.83313814  .00003565  00000+0  91935-3 0  9998", "line2": "2 35480  86.3570  26.1722 0015926 113.2937 246.9945 14.49744632869893"}}, "geometry": {"type": "Point", "coordinates": [19.163477353746618, -52.88599672579042]}}, {"type": "Feature", "properties": {"norad_id": 35484, "name": "IRIDIUM 33 DEB", "group": "iridium-33-debris", "lat": 53.9860820223032, "lon": 166.73114182744953, "alt_km": 549.0119321605016, "timestamp": "2025-12-14T20:40:32.157917+00:00", "meta": {"OBJECT_NAME": "IRIDIUM 33 DEB", "OBJECT_ID": "1997-051QE", "EPOCH": "2025-12-13T07:15:48.307680", "MEAN_MOTION": 14.98714194, "ECCENTRICITY": 0.00237352, "INCLINATION": 86.3615, "RA_OF_ASC_NODE": 352.4822, "ARG_OF_PERICENTER": 123.3819, "MEAN_ANOMALY": 236.9688, "EPHEMERIS_TYPE": 0, "CLASSIFICATION_TYPE": "U", "NORAD_CAT_ID": 35484, "ELEMENT_SET_NO": 999, "REV_AT_EPOCH": 62024, "BSTAR": 0.0048114888, "MEAN_MOTION_DOT": 0.00058609, "MEAN_MOTION_DDOT": 0}, "tle": {"line1": "1 35484U 97051QE  25347.30264245  .00058609  00000+0  48115-2 0  9991", "line2": "2 35484  86.3615 352.4822 0023735 123.3819 236.9688 14.98714194620242"}}, "geometry": {"type": "Point", "coordinates": [166.73114182744953, 53.9860820223032]}}, {"type": "Feature", "properties": {"norad_id": 35488, "name": "IRIDIUM 33 DEB", "group": "iridium-33-debris", "lat": 63.77585803376912, "lon": 112.40311738986483, "alt_km": 609.6876866216962, "timestamp": "2025-12-14T20:40:32.157927+00:00", "meta": {"OBJECT_NAME": "IRIDIUM 33 DEB", "OBJECT_ID": "1997-051QJ", "EPOCH": "2025-12-14T07:12:10.479456", "MEAN_MOTION": 14.83115421, "ECCENTRICITY": 0.00296471, "INCLINATION": 86.3249, "RA_OF_ASC_NODE": 300.1594, "ARG_OF_PERICENTER": 37.8758, "MEAN_ANOMALY": 322.4543, "EPHEMERIS_TYPE": 0, "CLASSIFICATION_TYPE": "U", "NORAD_CAT_ID": 35488, "ELEMENT_SET_NO": 999, "REV_AT_EPOCH": 88289, "BSTAR": 0.0017774187, "MEAN_MOTION_DOT": 0.00014633, "MEAN_MOTION_DDOT": 0}, "tle": {"line1": "1 35488U 97051QJ  25348.30012129  .00014633  00000+0  17774-2 0  9994", "line2": "2 35488  86.3249 300.1594 0029647  37.8758 322.4543 14.83115421882898"}}, "geometry": {"type": "Point", "coordinates": [112.40311738986483, 63.77585803376912]}}, {"type": "Feature", "properties": {"norad_id": 35616, "name": "IRIDIUM 33 DEB", "group": "iridium-33-debris", "lat": -84.14903968811582, "lon": -156.7336393547875, "alt_km": 633.300895792262, "timestamp": "2025-12-14T20:40:32.157938+00:00", "meta": {"OBJECT_NAME": "IRIDIUM 33 DEB", "OBJECT_ID": "1997-051QN", "EPOCH": "2025-12-13T17:33:06.169824", "MEAN_MOTION": 14.81853952, "ECCENTRICITY": 0.00103784, "INCLINATION": 86.3548, "RA_OF_ASC_NODE": 345.3124, "ARG_OF_PERICENTER": 159.4251, "MEAN_ANOMALY": 200.7391, "EPHEMERIS_TYPE": 0, "CLASSIFICATION_TYPE": "U", "NORAD_CAT_ID": 35616, "ELEMENT_SET_NO": 999, "REV_AT_EPOCH": 87589, "BSTAR": 0.0018690544, "MEAN_MOTION_DOT": 0.00014827, "MEAN_MOTION_DDOT": 0}, "tle": {"line1": "1 35616U 97051QN  25347.73132141  .00014827  00000+0  18691-2 0  9994", "line2": "2 35616  86.3548 345.3124 0010378 159.4251 200.7391 14.81853952875890"}}, "geometry": {"type": "Point", "coordinates": [-156.7336393547875, -84.14903968811582]}}, {"type": "Feature", "properties": {"norad_id": 35618, "name": "IRIDIUM 33 DEB", "group": "iridium-33-debris", "lat": 13.599136899404591, "lon": 171.68831613332802, "alt_km": 738.0971857500799, "timestamp": "2025-12-14T20:40:32.157948+00:00", "meta": {"OBJECT_NAME": "IRIDIUM 33 DEB", "OBJECT_ID": "1997-051QQ", "EPOCH": "2025-12-05T07:42:53.148672", "MEAN_MOTION": 14.52258119, "ECCENTRICITY": 0.00302089, "INCLINATION": 86.3407, "RA_OF_ASC_NODE": 356.7447, "ARG_OF_PERICENTER": 46.3254, "MEAN_ANOMALY": 314.0448, "EPHEMERIS_TYPE": 0, "CLASSIFICATION_TYPE": "U", "NORAD_CAT_ID": 35618, "ELEMENT_SET_NO": 999, "REV_AT_EPOCH": 65286, "BSTAR": 0.00091388234, "MEAN_MOTION_DOT": 3.753e-05, "MEAN_MOTION_DDOT": 0}, "tle": {"line1": "1 35618U 97051QQ  25339.32144848  .00003753  00000+0  91388-3 0  9990", "line2": "2 35618  86.3407 356.7447 0030208  46.3254 314.0448 14.52258119652865"}}, "geometry": {"type": "Point", "coordinates": [171.68831613332802, 13.599136899404591]}}, {"type": "Feature", "properties": {"norad_id": 35620, "name": "IRIDIUM 33 DEB", "group": "iridium-33-debris", "lat": 40.785233593737836, "lon": -140.31832521277605, "alt_km": 847.0455702174422, "timestamp": "2025-12-14T20:40:32.157958+00:00", "meta": {"OBJECT_NAME": "IRIDIUM 33 DEB", "OBJECT_ID": "1997-051QS", "EPOCH": "2025-12-13T21:06:15.438240", "MEAN_MOTION": 14.38113867, "ECCENTRICITY": 0.01404541, "INCLINATION": 86.3879, "RA_OF_ASC_NODE": 216.972, "ARG_OF_PERICENTER": 255.2324, "MEAN_ANOMALY": 103.3276, "EPHEMERIS_TYPE": 0, "CLASSIFICATION_TYPE": "U", "NORAD_CAT_ID": 35620, "ELEMENT_SET_NO": 999, "REV_AT_EPOCH": 59982, "BSTAR": 0.005286993, "MEAN_MOTION_DOT": 0.00018015, "MEAN_MOTION_DDOT": 0}, "tle": {"line1": "1 35620U 97051QS  25347.87934535  .00018015  00000+0  52870-2 0  9991", "line2": "2 35620  86.3879 216.9720 0140454 255.2324 103.3276 14.38113867599824"}}, "geometry": {"type": "Point", "coordinates": [-140.31832521277605, 40.785233593737836]}}, {"type": "Feature", "properties": {"norad_id": 35622, "name": "IRIDIUM 33 DEB", "group": "iridium-33-debris", "lat": -83.62934424889231, "lon": -133.9313844793508, "alt_km": 555.6925110030206, "timestamp": "2025-12-14T20:40:32.157969+00:00", "meta": {"OBJECT_NAME": "IRIDIUM 33 DEB", "OBJECT_ID": "1997-051QU", "EPOCH": "2025-12-13T12:18:27.452736", "MEAN_MOTION": 15.04855982, "ECCENTRICITY": 0.00058138, "INCLINATION": 86.204, "RA_OF_ASC_NODE": 263.2227, "ARG_OF_PERICENTER": 326.3099, "MEAN_ANOMALY": 206.7001, "EPHEMERIS_TYPE": 0, "CLASSIFICATION_TYPE": "U", "NORAD_CAT_ID": 35622, "ELEMENT_SET_NO": 999, "REV_AT_EPOCH": 87371, "BSTAR": 0.007661382, "MEAN_MOTION_DOT": 0.00109841, "MEAN_MOTION_DDOT": 0}, "tle": {"line1": "1 35622U 97051QU  25347.51281774  .00109841  00000+0  76614-2 0  9994", "line2": "2 35622  86.2040 263.2227 0005813 326.3099 206.7001 15.04855982873712"}}, "geometry": {"type": "Point", "coordinates": [-133.9313844793508, -83.62934424889231]}}, {"type": "Feature", "properties": {"norad_id": 35628, "name": "IRIDIUM 33 DEB", "group": "iridium-33-debris", "lat": 0.21590215417483805, "lon": -171.88419981490466, "alt_km": 678.3405907935157, "timestamp": "2025-12-14T20:40:32.157979+00:00", "meta": {"OBJECT_NAME": "IRIDIUM 33 DEB", "OBJECT_ID": "1997-051RA", "EPOCH": "2025-12-13T19:18:48.561408", "MEAN_MOTION": 14.67604958, "ECCENTRICITY": 0.00102895, "INCLINATION": 86.3579, "RA_OF_ASC_NODE": 8.6006, "ARG_OF_PERICENTER": 338.9594, "MEAN_ANOMALY": 21.1195, "EPHEMERIS_TYPE": 0, "CLASSIFICATION_TYPE": "U", "NORAD_CAT_ID": 35628, "ELEMENT_SET_NO": 999, "REV_AT_EPOCH": 86462, "BSTAR": 0.0015459634, "MEAN_MOTION_DOT": 8.811e-05, "MEAN_MOTION_DDOT": 0}, "tle": {"line1": "1 35628U 97051RA  25347.80472872  .00008811  00000+0  15460-2 0  9990", "line2": "2 35628  86.3579   8.6006 0010289 338.9594  21.1195 14.67604958864620"}}, "geometry": {"type": "Point", "coordinates": [-171.88419981490466, 0.21590215417483805]}}, {"type": "Feature", "properties": {"norad_id": 35631, "name": "IRIDIUM 33 DEB", "group": "iridium-33-debris", "lat": -78.35571692799549, "lon": 2.105300248110956, "alt_km": 755.2316397146224, "timestamp": "2025-12-14T20:40:32.157990+00:00", "meta": {"OBJECT_NAME": "IRIDIUM 33 DEB", "OBJECT_ID": "1997-051RD", "EPOCH": "2025-12-13T20:57:48.149280", "MEAN_MOTION": 14.47315231, "ECCENTRICITY": 0.00191087, "INCLINATION": 86.3671, "RA_OF_ASC_NODE": 20.4872, "ARG_OF_PERICENTER": 114.6031, "MEAN_ANOMALY": 61.8796, "EPHEMERIS_TYPE": 0, "CLASSIFICATION_TYPE": "U", "NORAD_CAT_ID": 35631, "ELEMENT_SET_NO": 999, "REV_AT_EPOCH": 87213, "BSTAR": 0.00047277124, "MEAN_MOTION_DOT": 1.754e-05, "MEAN_MOTION_DDOT": 0}, "tle": {"line1": "1 35631U 97051RD  25347.87347395  .00001754  00000+0  47277-3 0  9993", "line2": "2 35631  86.3671  20.4872 0019108 114.6031  61.8796 14.47315231872138"}}, "geometry": {"type": "Point", "coordinates": [2.105300248110956, -78.35571692799549]}}, {"type": "Feature", "properties": {"norad_id": 35680, "name": "IRIDIUM 33 DEB", "group": "iridium-33-debris", "lat": 51.68788997460222, "lon": 25.53250528849117, "alt_km": 899.940089990102, "timestamp": "2025-12-14T20:40:32.158000+00:00", "meta": {"OBJECT_NAME": "IRIDIUM 33 DEB", "OBJECT_ID": "1997-051RJ", "EPOCH": "2025-12-14T08:38:54.081024", "MEAN_MOTION": 14.20954301, "ECCENTRICITY": 0.01504449, "INCLINATION": 86.1029, "RA_OF_ASC_NODE": 20.8049, "ARG_OF_PERICENTER": 273.3107, "MEAN_ANOMALY": 95.5624, "EPHEMERIS_TYPE": 0, "CLASSIFICATION_TYPE": "U", "NORAD_CAT_ID": 35680, "ELEMENT_SET_NO": 999, "REV_AT_EPOCH": 60724, "BSTAR": 0.0038932879, "MEAN_MOTION_DOT": 9.473e-05, "MEAN_MOTION_DDOT": 0}, "tle": {"line1": "1 35680U 97051RJ  25348.36034816  .00009473  00000+0  38933-2 0  9997", "line2": "2 35680  86.1029  20.8049 0150444 273.3107  95.5624 14.20954301607243"}}, "geometry": {"type": "Point", "coordinates": [25.53250528849117, 51.68788997460222]}}]}